[{"OBJECT_NAME":"STARLINK-31061","OBJECT_ID":"2023-200Y","EPOCH":"2026-03-09T22:00:01.999584","MEAN_MOTION":15.26157729,"ECCENTRICITY":0.00011628,"INCLINATION":42.9986,"RA_OF_ASC_NODE":167.6991,"ARG_OF_PERICENTER":296.7948,"MEAN_ANOMALY":72.3937,"EPHEMERIS_TYPE":0,"CLASSIFICATION_TYPE":"U","NORAD_CAT_ID":58611,"ELEMENT_SET_NO":999,"REV_AT_EPOCH":573,"BSTAR":0.033916667,"MEAN_MOTION_DOT":0.00969574,"MEAN_MOTION_DDOT":0},{"OBJECT_NAME":"SL-3 R\/B","OBJECT_ID":"1981-065B","EPOCH":"2026-03-09T21:58:16.284000","MEAN_MOTION":15.33300883,"ECCENTRICITY":0.00117648,"INCLINATION":97.6337,"RA_OF_ASC_NODE":111.1786,"ARG_OF_PERICENTER":10.529,"MEAN_ANOMALY":349.6196,"EPHEMERIS_TYPE":0,"CLASSIFICATION_TYPE":"U","NORAD_CAT_ID":12586,"ELEMENT_SET_NO":999,"REV_AT_EPOCH":43499,"BSTAR":0.00030084921,"MEAN_MOTION_DOT":9.62e-5,"MEAN_MOTION_DDOT":0}]
